{"type": "FeatureCollection", "features": [{"type": "Feature", "properties": {"norad_id": 28890, "name": "BEIJING 1", "group": "dmc", "lat": 23.94724184745805, "lon": 101.9437697962171, "alt_km": 690.1970163797687, "timestamp": "2025-12-04T03:47:54.220512+00:00", "meta": {"OBJECT_NAME": "BEIJING 1", "OBJECT_ID": "2005-043A", "EPOCH": "2025-12-03T21:07:24.946176", "MEAN_MOTION": 14.63352263, "ECCENTRICITY": 0.0014869, "INCLINATION": 98.265, "RA_OF_ASC_NODE": 105.3665, "ARG_OF_PERICENTER": 168.2726, "MEAN_ANOMALY": 191.8825, "EPHEMERIS_TYPE": 0, "CLASSIFICATION_TYPE": "U", "NORAD_CAT_ID": 28890, "ELEMENT_SET_NO": 999, "REV_AT_EPOCH": 7208, "BSTAR": 0.00013929, "MEAN_MOTION_DOT": 6.72e-06, "MEAN_MOTION_DDOT": 0}, "tle": {"line1": "1 28890U 05043A   25337.88014984  .00000672  00000+0  13929-3 0  9992", "line2": "2 28890  98.2650 105.3665 0014869 168.2726 191.8825 14.63352263 72081"}}, "geometry": {"type": "Point", "coordinates": [101.9437697962171, 23.94724184745805]}}, {"type": "Feature", "properties": {"norad_id": 33320, "name": "HUANJING 1A (HJ-1A)", "group": "dmc", "lat": 24.58387139553901, "lon": 150.3428089202507, "alt_km": 619.1820210756796, "timestamp": "2025-12-04T03:47:54.220537+00:00", "meta": {"OBJECT_NAME": "HUANJING 1A (HJ-1A)", "OBJECT_ID": "2008-041A", "EPOCH": "2025-12-03T12:31:58.620864", "MEAN_MOTION": 14.83346429, "ECCENTRICITY": 0.0020647, "INCLINATION": 97.6536, "RA_OF_ASC_NODE": 326.2063, "ARG_OF_PERICENTER": 62.9456, "MEAN_ANOMALY": 297.3863, "EPHEMERIS_TYPE": 0, "CLASSIFICATION_TYPE": "U", "NORAD_CAT_ID": 33320, "ELEMENT_SET_NO": 999, "REV_AT_EPOCH": 92939, "BSTAR": 0.00026912, "MEAN_MOTION_DOT": 2.162e-05, "MEAN_MOTION_DDOT": 0}, "tle": {"line1": "1 33320U 08041A   25337.52220626  .00002162  00000+0  26912-3 0  9992", "line2": "2 33320  97.6536 326.2063 0020647  62.9456 297.3863 14.83346429929396"}}, "geometry": {"type": "Point", "coordinates": [150.3428089202507, 24.58387139553901]}}, {"type": "Feature", "properties": {"norad_id": 33321, "name": "HUANJING 1B (HJ-1B)", "group": "dmc", "lat": 32.68008241472734, "lon": -34.40441288375161, "alt_km": 609.2711927670971, "timestamp": "2025-12-04T03:47:54.220553+00:00", "meta": {"OBJECT_NAME": "HUANJING 1B (HJ-1B)", "OBJECT_ID": "2008-041B", "EPOCH": "2025-12-03T13:04:26.048352", "MEAN_MOTION": 14.82782056, "ECCENTRICITY": 0.0038163, "INCLINATION": 97.6396, "RA_OF_ASC_NODE": 329.9488, "ARG_OF_PERICENTER": 104.8212, "MEAN_ANOMALY": 255.7234, "EPHEMERIS_TYPE": 0, "CLASSIFICATION_TYPE": "U", "NORAD_CAT_ID": 33321, "ELEMENT_SET_NO": 999, "REV_AT_EPOCH": 92941, "BSTAR": 0.00021388, "MEAN_MOTION_DOT": 1.699e-05, "MEAN_MOTION_DDOT": 0}, "tle": {"line1": "1 33321U 08041B   25337.54474593  .00001699  00000+0  21388-3 0  9995", "line2": "2 33321  97.6396 329.9488 0038163 104.8212 255.7234 14.82782056929412"}}, "geometry": {"type": "Point", "coordinates": [-34.40441288375161, 32.68008241472734]}}, {"type": "Feature", "properties": {"norad_id": 33446, "name": "YAOGAN-4", "group": "dmc", "lat": -50.18878693913284, "lon": -82.04683460929165, "alt_km": 620.5287853605805, "timestamp": "2025-12-04T03:47:54.220565+00:00", "meta": {"OBJECT_NAME": "YAOGAN-4", "OBJECT_ID": "2008-061A", "EPOCH": "2025-12-03T08:35:24.296640", "MEAN_MOTION": 14.8263402, "ECCENTRICITY": 0.0014411, "INCLINATION": 97.917, "RA_OF_ASC_NODE": 267.5501, "ARG_OF_PERICENTER": 354.6933, "MEAN_ANOMALY": 5.4125, "EPHEMERIS_TYPE": 0, "CLASSIFICATION_TYPE": "U", "NORAD_CAT_ID": 33446, "ELEMENT_SET_NO": 999, "REV_AT_EPOCH": 91664, "BSTAR": 0.00028686, "MEAN_MOTION_DOT": 2.261e-05, "MEAN_MOTION_DDOT": 0}, "tle": {"line1": "1 33446U 08061A   25337.35792010  .00002261  00000+0  28686-3 0  9995", "line2": "2 33446  97.9170 267.5501 0014411 354.6933   5.4125 14.82634020916648"}}, "geometry": {"type": "Point", "coordinates": [-82.04683460929165, -50.18878693913284]}}, {"type": "Feature", "properties": {"norad_id": 35681, "name": "DEIMOS-1", "group": "dmc", "lat": -42.2107130506399, "lon": 146.2242487145196, "alt_km": 653.3847810375746, "timestamp": "2025-12-04T03:47:54.220577+00:00", "meta": {"OBJECT_NAME": "DEIMOS-1", "OBJECT_ID": "2009-041A", "EPOCH": "2025-12-03T11:42:35.088768", "MEAN_MOTION": 14.74929428, "ECCENTRICITY": 0.0002677, "INCLINATION": 97.7146, "RA_OF_ASC_NODE": 138.5224, "ARG_OF_PERICENTER": 96.748, "MEAN_ANOMALY": 263.4034, "EPHEMERIS_TYPE": 0, "CLASSIFICATION_TYPE": "U", "NORAD_CAT_ID": 35681, "ELEMENT_SET_NO": 999, "REV_AT_EPOCH": 87803, "BSTAR": 0.0001719, "MEAN_MOTION_DOT": 1.107e-05, "MEAN_MOTION_DDOT": 0}, "tle": {"line1": "1 35681U 09041A   25337.48790612  .00001107  00000+0  17190-3 0  9993", "line2": "2 35681  97.7146 138.5224 0002677  96.7480 263.4034 14.74929428878038"}}, "geometry": {"type": "Point", "coordinates": [146.2242487145196, -42.2107130506399]}}, {"type": "Feature", "properties": {"norad_id": 35683, "name": "UK-DMC 2", "group": "dmc", "lat": -47.608764844050924, "lon": 122.0029047670985, "alt_km": 650.8890849857826, "timestamp": "2025-12-04T03:47:54.220588+00:00", "meta": {"OBJECT_NAME": "UK-DMC 2", "OBJECT_ID": "2009-041C", "EPOCH": "2025-12-03T11:44:30.986592", "MEAN_MOTION": 14.75588187, "ECCENTRICITY": 0.000129, "INCLINATION": 97.8557, "RA_OF_ASC_NODE": 112.6538, "ARG_OF_PERICENTER": 102.811, "MEAN_ANOMALY": 257.3244, "EPHEMERIS_TYPE": 0, "CLASSIFICATION_TYPE": "U", "NORAD_CAT_ID": 35683, "ELEMENT_SET_NO": 999, "REV_AT_EPOCH": 87770, "BSTAR": 0.00023807, "MEAN_MOTION_DOT": 1.574e-05, "MEAN_MOTION_DDOT": 0}, "tle": {"line1": "1 35683U 09041C   25337.48924753  .00001574  00000+0  23807-3 0  9990", "line2": "2 35683  97.8557 112.6538 0001290 102.8110 257.3244 14.75588187877709"}}, "geometry": {"type": "Point", "coordinates": [122.0029047670985, -47.608764844050924]}}, {"type": "Feature", "properties": {"norad_id": 40715, "name": "DMC3-FM1", "group": "dmc", "lat": 57.18596299236361, "lon": -166.4006526922965, "alt_km": 605.3171397885235, "timestamp": "2025-12-04T03:47:54.220599+00:00", "meta": {"OBJECT_NAME": "DMC3-FM1", "OBJECT_ID": "2015-032A", "EPOCH": "2025-12-03T21:04:17.800320", "MEAN_MOTION": 14.85415088, "ECCENTRICITY": 0.0005286, "INCLINATION": 97.6699, "RA_OF_ASC_NODE": 205.3929, "ARG_OF_PERICENTER": 352.7339, "MEAN_ANOMALY": 7.3799, "EPHEMERIS_TYPE": 0, "CLASSIFICATION_TYPE": "U", "NORAD_CAT_ID": 40715, "ELEMENT_SET_NO": 999, "REV_AT_EPOCH": 56091, "BSTAR": 0.00015844, "MEAN_MOTION_DOT": 1.314e-05, "MEAN_MOTION_DDOT": 0}, "tle": {"line1": "1 40715U 15032A   25337.87798380  .00001314  00000+0  15844-3 0  9991", "line2": "2 40715  97.6699 205.3929 0005286 352.7339   7.3799 14.85415088560918"}}, "geometry": {"type": "Point", "coordinates": [-166.4006526922965, 57.18596299236361]}}, {"type": "Feature", "properties": {"norad_id": 40716, "name": "DMC3-FM2", "group": "dmc", "lat": -61.421973039041525, "lon": -138.56483704906358, "alt_km": 617.2788000137862, "timestamp": "2025-12-04T03:47:54.220609+00:00", "meta": {"OBJECT_NAME": "DMC3-FM2", "OBJECT_ID": "2015-032B", "EPOCH": "2025-12-03T21:36:42.317856", "MEAN_MOTION": 14.85416599, "ECCENTRICITY": 0.0005932, "INCLINATION": 97.6756, "RA_OF_ASC_NODE": 206.8522, "ARG_OF_PERICENTER": 356.8362, "MEAN_ANOMALY": 3.2815, "EPHEMERIS_TYPE": 0, "CLASSIFICATION_TYPE": "U", "NORAD_CAT_ID": 40716, "ELEMENT_SET_NO": 999, "REV_AT_EPOCH": 56091, "BSTAR": 0.00016178, "MEAN_MOTION_DOT": 1.342e-05, "MEAN_MOTION_DDOT": 0}, "tle": {"line1": "1 40716U 15032B   25337.90048979  .00001342  00000+0  16178-3 0  9990", "line2": "2 40716  97.6756 206.8522 0005932 356.8362   3.2815 14.85416599560919"}}, "geometry": {"type": "Point", "coordinates": [-138.56483704906358, -61.421973039041525]}}, {"type": "Feature", "properties": {"norad_id": 40717, "name": "DMC3-FM3", "group": "dmc", "lat": -2.5505066818439177, "lon": 28.383602057727984, "alt_km": 619.3573265794475, "timestamp": "2025-12-04T03:47:54.220620+00:00", "meta": {"OBJECT_NAME": "DMC3-FM3", "OBJECT_ID": "2015-032C", "EPOCH": "2025-12-03T20:30:45.754272", "MEAN_MOTION": 14.85409676, "ECCENTRICITY": 0.0005302, "INCLINATION": 97.6811, "RA_OF_ASC_NODE": 208.4352, "ARG_OF_PERICENTER": 359.2374, "MEAN_ANOMALY": 0.8833, "EPHEMERIS_TYPE": 0, "CLASSIFICATION_TYPE": "U", "NORAD_CAT_ID": 40717, "ELEMENT_SET_NO": 999, "REV_AT_EPOCH": 56091, "BSTAR": 0.00012905, "MEAN_MOTION_DOT": 1.06e-05, "MEAN_MOTION_DDOT": 0}, "tle": {"line1": "1 40717U 15032C   25337.85469623  .00001060  00000+0  12905-3 0  9999", "line2": "2 40717  97.6811 208.4352 0005302 359.2374   0.8833 14.85409676560913"}}, "geometry": {"type": "Point", "coordinates": [28.383602057727984, -2.5505066818439177]}}]}